BEIDOU 3 (C01)          
1 36287U 10001A   21129.05032845 -.00000282  00000-0  00000-0 0  9993
2 36287   1.8164  44.9100 0004698  74.8445 265.8180  1.00272067 41454
BEIDOU 5 (C06)          
1 36828U 10036A   21129.53620727 -.00000067  00000-0  00000-0 0  9998
2 36828  54.1710 179.9529 0112192 235.1069 124.7858  1.00273089 39525
BEIDOU 6 (C04)          
1 37210U 10057A   21129.83132639 -.00000111  00000-0  00000-0 0  9990
2 37210   0.7826  42.8287 0002054 139.9846 144.2720  1.00271937 38584
BEIDOU 7 (C07)          
1 37256U 10068A   21128.24910661 -.00000228  00000-0  00000-0 0  9994
2 37256  50.9319 294.4725 0083489 215.2892 285.6756  1.00267254 38081
BEIDOU 8 (C08)          
1 37384U 11013A   21129.93328192 -.00000220  00000-0  00000-0 0  9998
2 37384  59.7274  58.2913 0052491 207.1053  57.4682  1.00264373 36971
BEIDOU 9 (C09)          
1 37763U 11038A   21129.89359316 -.00000026  00000-0  00000-0 0  9997
2 37763  54.4588 182.3918 0082197 225.8903 237.2163  1.00273157 35952
BEIDOU 10 (C10)         
1 37948U 11073A   21129.86923189 -.00000166  00000-0  00000-0 0  9998
2 37948  51.0297 294.0659 0070622 213.6263 127.8317  1.00261973 34704
BEIDOU 11 (C05)         
1 38091U 12008A   21129.90559498  .00000060  00000-0  00000-0 0  9992
2 38091   1.4731  66.6529 0008794 320.2201 225.7238  1.00271750 33784
BEIDOU 12 (C11)         
1 38250U 12018A   21129.80354046 -.00000103  00000-0  00000-0 0  9990
2 38250  56.7559   6.8870 0020730 251.4258  49.5900  1.86234322 61561
BEIDOU 13 (C12)         
1 38251U 12018B   21129.72791365 -.00000103  00000-0  00000-0 0  9991
2 38251  56.6790   6.2414 0011861 257.4487  37.2790  1.86234208 61565
BEIDOU 15 (C14)         
1 38775U 12050B   21129.75405801  .00000056  00000-0  00000-0 0  9994
2 38775  55.1901 125.2864 0016153 316.1851 193.4641  1.86232284 58942
BEIDOU 16 (C02)         
1 38953U 12059A   21129.89669336 -.00000173  00000-0  00000-0 0  9992
2 38953   1.8790  84.7482 0008927 289.1294 260.8647  1.00273612 31356
BEIDOU 17 (C31)         
1 40549U 15019A   21129.48035446 -.00000177  00000-0  00000+0 0  9992
2 40549  52.5561 317.4340 0037613 186.4547 353.2670  1.00274935 22387
BEIDOU 18 (C57)         
1 40748U 15037A   21129.86392925 -.00000103  00000-0  00000-0 0  9993
2 40748  55.9416   5.3472 0005491  17.2708 278.5714  1.86233357 39396
BEIDOU 19 (C58)         
1 40749U 15037B   21129.66018965 -.00000104  00000-0  00000-0 0  9992
2 40749  55.9440   5.3412 0005724 339.6777 315.8493  1.86232203 39381
BEIDOU 20 (C18)         
1 40938U 15053A   21129.87410639 -.00000159  00000-0  00000-0 0  9997
2 40938  52.1244 280.4982 0045877 190.0131 166.2827  1.00291962 20658
BEIDOU IGSO-6 (C13)     
1 41434U 16021A   21129.74723096 -.00000185  00000-0  00000-0 0  9994
2 41434  57.5106  57.0481 0038722 216.3280 320.3151  1.00277193 18780
BEIDOU-2 G7 (C03)       
1 41586U 16037A   21129.86299528 -.00000352  00000-0  00000-0 0  9996
2 41586   1.6207  66.0766 0009334  14.0595 208.8531  1.00278571 18092
BEIDOU-3 M1 (C19)       
1 43001U 17069A   21129.55949718  .00000058  00000-0  00000-0 0  9997
2 43001  55.3447 125.2395 0012421 289.4181 245.9271  1.86231740 23870
BEIDOU-3 M2 (C20)       
1 43002U 17069B   21129.39076044  .00000059  00000-0  00000-0 0  9994
2 43002  55.3442 125.2801 0010841 306.4608 159.2917  1.86231457 23864
BEIDOU-3 M3 (C27)       
1 43107U 18003A   21129.25524501 -.00000107  00000-0  00000-0 0  9995
2 43107  55.3835   6.4656 0005660  43.2985 137.4587  1.86232499 22622
BEIDOU-3 M4 (C28)       
1 43108U 18003B   21129.93636146 -.00000105  00000-0  00000-0 0  9998
2 43108  55.3768   6.4321 0002250 262.7860  59.8068  1.86232485 22636
BEIDOU-3 M5 (C21)       
1 43207U 18018A   21128.82855369  .00000063  00000-0  00000-0 0  9993
2 43207  55.3034 125.3926 0008067 321.5455  38.4101  1.86231538 22000
BEIDOU-3 M6 (C22)       
1 43208U 18018B   21129.43216248  .00000059  00000-0  00000-0 0  9994
2 43208  55.3047 125.3758 0010465 297.8157  62.0883  1.86231671 22016
BEIDOU-3 M7 (C29)       
1 43245U 18029A   21129.46930925 -.00000105  00000-0  00000-0 0  9998
2 43245  55.3147   4.2512 0001399  22.2369 212.2156  1.86232613 21166
BEIDOU-3 M8 (C30)       
1 43246U 18029B   21129.32363258 -.00000105  00000-0  10000-3 0  9997
2 43246  55.3131   4.2873 0004979 358.5002 184.4249  1.86232752 21152
BEIDOU IGSO-7 (C16)     
1 43539U 18057A   21129.94699799 -.00000069  00000-0  00000-0 0  9998
2 43539  55.0517 179.3008 0038267 222.0588 280.9493  1.00280842 10461
BEIDOU-3 M9 (C23)       
1 43581U 18062A   21129.81736863 -.00000043  00000-0  00000-0 0  9993
2 43581  54.4172 245.9217 0002676 272.9019  91.0536  1.86231850 18914
BEIDOU-3 M10 (C24)      
1 43582U 18062B   21129.68680530 -.00000045  00000-0  00000-0 0  9990
2 43582  54.4186 245.9158 0004479   6.8868   0.8458  1.86231994 18913
BEIDOU-3 M11 (C25)      
1 43602U 18067A   21129.63499748 -.00000044  00000-0  00000-0 0  9991
2 43602  54.4921 244.4990 0006666   2.5483  12.7220  1.86231580 18401
BEIDOU-3 M12 (C26)      
1 43603U 18067B   21129.58729120 -.00000044  00000-0  00000-0 0  9996
2 43603  54.4898 244.4671 0003870 354.4256 259.3325  1.86231547 18411
BEIDOU-3 M13 (C32)      
1 43622U 18072A   21129.89073632  .00000055  00000-0  00000-0 0  9998
2 43622  55.2691 124.9256 0008855 286.5843 200.7804  1.86231668 17930
BEIDOU-3 M14 (C33)      
1 43623U 18072B   21129.90295058  .00000054  00000-0  00000-0 0  9998
2 43623  55.2691 124.9163 0007051 304.7007 281.0886  1.86231644 17936
BEIDOU-3 M15 (C34)      
1 43647U 18078A   21129.31217237 -.00000106  00000-0  10000-3 0  9991
2 43647  55.2079   4.4516 0007433   0.8875  84.0383  1.86232617 17436
BEIDOU-3 M16 (C35)      
1 43648U 18078B   21129.80323950 -.00000104  00000-0  10000-3 0  9994
2 43648  55.2063   4.4405 0005581   9.9457 312.7530  1.86232272 17459
BEIDOU-3 G1 (C59)       
1 43683U 18085A   21129.82731354 -.00000276  00000-0  00000-0 0  9990
2 43683   1.1152 231.7513 0002880  11.8064  62.0617  1.00277332  9361
BEIDOU-3 M17 (C36)      
1 43706U 18093A   21129.55700196 -.00000046  00000-0  00000-0 0  9990
2 43706  54.4992 245.7862 0008642 269.3482 144.9820  1.86231800 16805
BEIDOU-3 M18 (C37)      
1 43707U 18093B   21129.72513678 -.00000044  00000-0  00000-0 0  9995
2 43707  54.4981 245.7712 0007223 297.0141 320.8618  1.86232062 16803
BEIDOU-3 IGSO-1 (C38)   
1 44204U 19023A   21129.72341006 -.00000229  00000-0  00000-0 0  9991
2 44204  55.9677  57.3373 0015338 203.5476 337.8789  1.00250825  7667
BEIDOU-2 G8             
1 44231U 19027A   21129.75647797 -.00000246  00000-0  00000-0 0  9993
2 44231   0.3118 333.7203 0005278 218.1683  92.7914  1.00271664  7377
BEIDOU-3 IGSO-2 (C39)   
1 44337U 19035A   21129.32271947 -.00000054  00000-0  00000-0 0  9999
2 44337  55.0837 175.3493 0020372 191.6621  81.9852  1.00292410  6999
BEIDOU-3 M23 (C45)      
1 44542U 19061A   21129.48188451 -.00000047  00000-0  10000-3 0  9996
2 44542  54.7228 245.8516 0007353 332.7651  75.1898  1.86231120 11065
BEIDOU-3 M24 (C46)      
1 44543U 19061B   21129.63941646 -.00000045  00000-0  10000-3 0  9995
2 44543  54.7217 245.8157 0004524 323.4510 100.9264  1.86231618 11070
BEIDOU-3 IGSO-3         
1 44709U 19073A   21129.34056124 -.00000175  00000-0  00000-0 0  9998
2 44709  57.9036 300.5557 0018517 197.3733 318.2415  1.00286591  5759
BEIDOU-3 M21            
1 44793U 19078A   21127.37063464 -.00000112  00000-0  10000-3 0  9997
2 44793  55.0594   4.5868 0007440   7.8055 169.9074  1.86232295  9887
BEIDOU-3 M22            
1 44794U 19078B   21129.85084102 -.00000105  00000-0  00000-0 0  9993
2 44794  55.0365   4.5018 0005291   5.8525 305.6350  1.86232831  9920
BEIDOU-3 M19            
1 44864U 19090A   21129.35896125  .00000059  00000-0  00000-0 0  9993
2 44864  55.2028 125.1769 0018168 268.8488 267.4584  1.86231858  9501
BEIDOU-3 M20            
1 44865U 19090B   21129.68731159  .00000056  00000-0  00000-0 0  9992
2 44865  55.2057 125.1953 0016903 282.2508 204.1202  1.86231790  9495
BEIDOU-3 G2             
1 45344U 20017A   21129.88983244 -.00000144  00000-0  00000-0 0  9991
2 45344   2.4806 335.7331 0003780 108.6654 183.9039  1.00273530  4575
BEIDOU-3 G3             
1 45807U 20040A   21129.89317664 -.00000354  00000-0  00000-0 0  9992
2 45807   2.3717 298.5563 0005635  19.4664 341.8224  1.00265226  3396
